     2              NAVIGATION DATA                         RINEX VERSION / TYPE
CCRINEXN V1.6.0 UX  CDDIS               09-OCT-19 21:18     PGM / RUN BY / DATE 
IGS BROADCAST EPHEMERIS FILE                                COMMENT             
    0.1118D-07  0.0000D+00 -0.5960D-07  0.0000D+00          ION ALPHA           
    0.9011D+05  0.0000D+00 -0.1966D+06  0.0000D+00          ION BETA            
   -0.186264514923D-08-0.177635683940D-14   503808     2074 DELTA-UTC: A0,A1,T,W
    18                                                      LEAP SECONDS        
                                                            END OF HEADER       
 1 19 10 10  0  0  0.0-0.157065223902D-03-0.133013600134D-10 0.000000000000D+00
    0.570000000000D+02 0.283750000000D+02 0.436803908922D-08 0.180575435895D+01
    0.134110450745D-05 0.911340804305D-02 0.348314642906D-05 0.515364152527D+04
    0.345600000000D+06-0.167638063431D-06 0.922964275018D+00 0.558793544769D-08
    0.977113893676D+00 0.321093750000D+03 0.766951367677D+00-0.821962809479D-08
    0.190365072327D-09 0.100000000000D+01 0.207400000000D+04 0.000000000000D+00
    0.200000000000D+01 0.000000000000D+00 0.558793544769D-08 0.570000000000D+02
    0.338421000000D+06 0.400000000000D+01 0.000000000000D+00 0.000000000000D+00
 2 19 10 10  0  0  0.0-0.322575680912D-03-0.795807864051D-11 0.000000000000D+00
    0.810000000000D+02 0.248750000000D+02 0.462769276198D-08 0.209009477521D+01
    0.105425715446D-05 0.192100652494D-01 0.318884849548D-05 0.515354940414D+04
    0.345600000000D+06 0.283122062683D-06 0.851428641558D+00-0.314787030220D-06
    0.956245409700D+00 0.310593750000D+03-0.170981211855D+01-0.810712340852D-08
    0.247510309798D-09 0.100000000000D+01 0.207400000000D+04 0.000000000000D+00
    0.200000000000D+01 0.000000000000D+00-0.204890966415D-07 0.810000000000D+02
    0.338418000000D+06 0.400000000000D+01 0.000000000000D+00 0.000000000000D+00
 3 19 10 10  0  0  0.0-0.204364769161D-04-0.466116034659D-11 0.000000000000D+00
    0.240000000000D+02-0.850625000000D+02 0.449090134978D-08 0.659753243931D+00
   -0.462867319584D-05 0.256203406025D-02 0.704452395439D-05 0.515369627571D+04
    0.345600000000D+06-0.484287738800D-07 0.196516556208D+01 0.335276126862D-07
    0.963641205216D+00 0.247593750000D+03 0.771867961776D+00-0.809069415274D-08
   -0.222152110670D-09 0.100000000000D+01 0.207400000000D+04 0.000000000000D+00
    0.200000000000D+01 0.000000000000D+00 0.186264514923D-08 0.240000000000D+02
    0.340524000000D+06 0.400000000000D+01 0.000000000000D+00 0.000000000000D+00
 5 19 10 10  0  0  0.0-0.217230990529D-05-0.341060513165D-12 0.000000000000D+00
    0.280000000000D+02-0.835937500000D+02 0.475805533496D-08-0.162172432920D+01
   -0.440888106823D-05 0.590562087018D-02 0.670365989208D-05 0.515377861595D+04
    0.345600000000D+06 0.856816768646D-07 0.193645257343D+01-0.298023223877D-07
    0.950507035999D+00 0.237437500000D+03 0.801024233623D+00-0.820034157714D-08
   -0.164292557730D-09 0.100000000000D+01 0.207400000000D+04 0.000000000000D+00
    0.200000000000D+01 0.000000000000D+00-0.111758708954D-07 0.280000000000D+02
    0.338418000000D+06 0.400000000000D+01 0.000000000000D+00 0.000000000000D+00
 6 19 10 10  0  0  0.0-0.850586220622D-04-0.129602995003D-10 0.000000000000D+00
    0.470000000000D+02 0.194375000000D+02 0.425589156068D-08 0.217852559398D+01
    0.109337270260D-05 0.141315860674D-02 0.351853668690D-05 0.515367079735D+04
    0.345600000000D+06 0.298023223877D-07 0.914693123452D+00 0.931322574616D-08
    0.976739639732D+00 0.318125000000D+03-0.118163571477D+01-0.810855203945D-08
    0.215008955986D-09 0.100000000000D+01 0.207400000000D+04 0.000000000000D+00
    0.200000000000D+01 0.000000000000D+00 0.419095158577D-08 0.470000000000D+02
    0.338418000000D+06 0.400000000000D+01 0.000000000000D+00 0.000000000000D+00
 7 19 10 10  0  0  0.0-0.123759731650D-03-0.807176547823D-11 0.000000000000D+00
    0.610000000000D+02 0.327500000000D+02 0.522164607395D-08 0.115345874955D+01
    0.186264514923D-05 0.131673425203D-01 0.496767461300D-05 0.515372401047D+04
    0.345600000000D+06-0.651925802231D-07-0.221138925719D+01 0.189989805222D-06
    0.954509162932D+00 0.283687500000D+03-0.242619547285D+01-0.862535928083D-08
    0.821462788651D-11 0.100000000000D+01 0.207400000000D+04 0.000000000000D+00
    0.200000000000D+01 0.000000000000D+00-0.111758708954D-07 0.610000000000D+02
    0.338418000000D+06 0.400000000000D+01 0.000000000000D+00 0.000000000000D+00
 8 19 10 10  0  0  0.0-0.936863943934D-05-0.136424205266D-11 0.000000000000D+00
    0.600000000000D+01 0.493750000000D+02 0.403588239642D-08-0.209171714844D+01
    0.259280204773D-05 0.451722624712D-02 0.103414058685D-04 0.515356847763D+04
    0.345600000000D+06-0.279396772385D-07-0.144394575802D+00-0.204890966415D-07
    0.970557216267D+00 0.186406250000D+03-0.232960359003D+00-0.780746806953D-08
    0.145720355552D-09 0.100000000000D+01 0.207400000000D+04 0.000000000000D+00
    0.200000000000D+01 0.000000000000D+00 0.512227416039D-08 0.600000000000D+01
    0.338423000000D+06 0.400000000000D+01 0.000000000000D+00 0.000000000000D+00
 9 19 10 10  0  0  0.0-0.525293871760D-04-0.100044417195D-10 0.000000000000D+00
    0.680000000000D+02 0.116250000000D+02 0.463697886307D-08-0.181554539609D+01
    0.737607479095D-06 0.148980121594D-02 0.106990337372D-04 0.515358836365D+04
    0.345600000000D+06-0.204890966415D-07 0.299676318296D+01 0.167638063431D-07
    0.953021988208D+00 0.171250000000D+03 0.167350506802D+01-0.798318967475D-08
    0.318941856637D-09 0.100000000000D+01 0.207400000000D+04 0.000000000000D+00
    0.200000000000D+01 0.000000000000D+00 0.139698386192D-08 0.680000000000D+02
    0.338400000000D+06 0.000000000000D+00 0.000000000000D+00 0.000000000000D+00
10 19 10 10  0  0  0.0-0.876295380294D-04-0.154614099301D-10 0.000000000000D+00
    0.540000000000D+02-0.963437500000D+02 0.450804504837D-08-0.170409914257D+00
   -0.492669641972D-05 0.491873850115D-02 0.747479498386D-05 0.515366635513D+04
    0.345600000000D+06 0.651925802231D-07 0.196199970642D+01 0.633299350738D-07
    0.963631908371D+00 0.236781250000D+03-0.274170293162D+01-0.819034084998D-08
   -0.240367142856D-09 0.100000000000D+01 0.207400000000D+04 0.000000000000D+00
    0.200000000000D+01 0.000000000000D+00 0.186264514923D-08 0.540000000000D+02
    0.345600000000D+06 0.000000000000D+00 0.000000000000D+00 0.000000000000D+00
11 19 10 10  0  0  0.0-0.482846982777D-03 0.112549969344D-10 0.000000000000D+00
    0.660000000000D+02 0.663750000000D+02 0.578738392491D-08 0.103007394635D+01
    0.316277146339D-05 0.165998887969D-01 0.553578138351D-05 0.515373099136D+04
    0.345600000000D+06 0.558793544769D-08 0.463421347336D+00-0.366941094399D-06
    0.910941026773D+00 0.245406250000D+03 0.195589001632D+01-0.894572976841D-08
    0.325727853587D-09 0.100000000000D+01 0.207400000000D+04 0.000000000000D+00
    0.200000000000D+01 0.000000000000D+00-0.121071934700D-07 0.660000000000D+02
    0.338425000000D+06 0.400000000000D+01 0.000000000000D+00 0.000000000000D+00
12 19 10 10  0  0  0.0 0.195668078959D-03-0.386535248253D-11 0.000000000000D+00
    0.220000000000D+02-0.264375000000D+02 0.414481560185D-08 0.519118044287D+00
   -0.140629708767D-05 0.748116872273D-02 0.845082104206D-05 0.515357025147D+04
    0.345600000000D+06-0.521540641785D-07-0.110836826134D+01 0.540167093277D-07
    0.980970899135D+00 0.227750000000D+03 0.110303873667D+01-0.795176013923D-08
   -0.577166925364D-09 0.100000000000D+01 0.207400000000D+04 0.000000000000D+00
    0.200000000000D+01 0.000000000000D+00-0.125728547573D-07 0.220000000000D+02
    0.345600000000D+06 0.000000000000D+00 0.000000000000D+00 0.000000000000D+00
13 19 10 10  0  0  0.0-0.397507101297D-04 0.216004991671D-11 0.000000000000D+00
    0.200000000000D+01 0.311250000000D+02 0.427803534020D-08 0.311168591647D+01
    0.144727528095D-05 0.387479539495D-02 0.108163803816D-04 0.515367229462D+04
    0.345600000000D+06 0.149011611938D-07 0.313600042102D+01-0.260770320892D-07
    0.968374055341D+00 0.175500000000D+03 0.119983603659D+01-0.776103756408D-08
    0.396087927223D-09 0.100000000000D+01 0.207400000000D+04 0.000000000000D+00
    0.200000000000D+01 0.000000000000D+00-0.111758708954D-07 0.200000000000D+01
    0.338418000000D+06 0.400000000000D+01 0.000000000000D+00 0.000000000000D+00
14 19 10 10  0  0  0.0-0.569722615182D-04 0.204636307899D-11 0.000000000000D+00
    0.620000000000D+02 0.209687500000D+02 0.437125358133D-08-0.256953584648D+01
    0.107102096081D-05 0.107591828564D-01 0.109951943159D-04 0.515375834656D+04
    0.345600000000D+06 0.221654772759D-06 0.309067835872D+01 0.931322574616D-08
    0.960949829475D+00 0.164062500000D+03-0.193230715368D+01-0.771710695346D-08
    0.445018549788D-09 0.100000000000D+01 0.207400000000D+04 0.000000000000D+00
    0.200000000000D+01 0.000000000000D+00-0.977888703346D-08 0.620000000000D+02
    0.345600000000D+06 0.000000000000D+00 0.000000000000D+00 0.000000000000D+00
15 19 10 10  0  0  0.0-0.281031709164D-03 0.272848410532D-11 0.000000000000D+00
    0.620000000000D+02 0.581250000000D+01 0.504949604606D-08 0.310304893883D+01
    0.141561031342D-06 0.118239184376D-01 0.117458403110D-04 0.515358618355D+04
    0.345600000000D+06-0.260770320892D-07 0.291331108843D+01-0.152736902237D-06
    0.928508229832D+00 0.136562500000D+03 0.819659615576D+00-0.801069082028D-08
    0.301441127661D-09 0.100000000000D+01 0.207400000000D+04 0.000000000000D+00
    0.200000000000D+01 0.000000000000D+00-0.107102096081D-07 0.620000000000D+02
    0.338418000000D+06 0.400000000000D+01 0.000000000000D+00 0.000000000000D+00
